{
  "type": "FeatureCollection",
  "features": [
    {
      "type": "Feature",
      "properties": {
        "norad_id": 39777,
        "name": "IRIDIUM 33 DEB",
        "group": "iridium-33-debris",
        "lat": -4.981096653462538,
        "lon": -11.956593925145635,
        "alt_km": 678.9451558410128,
        "timestamp": "2025-12-27T21:25:02.901828+00:00",
        "meta_object_name": "IRIDIUM 33 DEB",
        "meta_object_id": "1997-051AAJ",
        "meta_epoch": "2025-12-26T21:29:47.806944",
        "meta_mean_motion": 14.56768068,
        "meta_eccentricity": 0.006056,
        "meta_inclination": 85.9637,
        "meta_ra_of_asc_node": 168.1747,
        "meta_arg_of_pericenter": 139.2248,
        "meta_mean_anomaly": 221.3516,
        "meta_ephemeris_type": 0,
        "meta_classification_type": "U",
        "meta_norad_cat_id": 39777,
        "meta_element_set_no": 999,
        "meta_rev_at_epoch": 60391,
        "meta_bstar": 0.0035268,
        "meta_mean_motion_dot": 0.00016216,
        "meta_mean_motion_ddot": 0,
        "tle_line1": "1 39777U 97051AAJ 25360.89569221  .00016216  00000+0  35268-2 0  9994",
        "tle_line2": "2 39777  85.9637 168.1747 0060560 139.2248 221.3516 14.56768068603913"
      },
      "geometry": {
        "type": "Point",
        "coordinates": [
          -11.956593925145635,
          -4.981096653462538
        ]
      }
    },
    {
      "type": "Feature",
      "properties": {
        "norad_id": 39778,
        "name": "IRIDIUM 33 DEB",
        "group": "iridium-33-debris",
        "lat": -74.00089442029363,
        "lon": -130.5879923464143,
        "alt_km": 719.4800339229705,
        "timestamp": "2025-12-27T21:25:02.901838+00:00",
        "meta_object_name": "IRIDIUM 33 DEB",
        "meta_object_id": "1997-051AAK",
        "meta_epoch": "2025-12-27T08:41:31.263360",
        "meta_mean_motion": 14.54361873,
        "meta_eccentricity": 0.0006354,
        "meta_inclination": 86.3772,
        "meta_ra_of_asc_node": 36.8767,
        "meta_arg_of_pericenter": 354.4551,
        "meta_mean_anomaly": 5.6584,
        "meta_ephemeris_type": 0,
        "meta_classification_type": "U",
        "meta_norad_cat_id": 39778,
        "meta_element_set_no": 999,
        "meta_rev_at_epoch": 60905,
        "meta_bstar": 0.00091859,
        "meta_mean_motion_dot": 3.921e-05,
        "meta_mean_motion_ddot": 0,
        "tle_line1": "1 39778U 97051AAK 25361.36216740  .00003921  00000+0  91859-3 0  9991",
        "tle_line2": "2 39778  86.3772  36.8767 0006354 354.4551   5.6584 14.54361873609051"
      },
      "geometry": {
        "type": "Point",
        "coordinates": [
          -130.5879923464143,
          -74.00089442029363
        ]
      }
    },
    {
      "type": "Feature",
      "properties": {
        "norad_id": 39781,
        "name": "IRIDIUM 33 DEB",
        "group": "iridium-33-debris",
        "lat": -12.27494785438865,
        "lon": -109.05794897810068,
        "alt_km": 893.113465416317,
        "timestamp": "2025-12-27T21:25:02.901849+00:00",
        "meta_object_name": "IRIDIUM 33 DEB",
        "meta_object_id": "1997-051AAN",
        "meta_epoch": "2025-12-26T00:09:41.273280",
        "meta_mean_motion": 14.20964815,
        "meta_eccentricity": 0.01723668,
        "meta_inclination": 86.3698,
        "meta_ra_of_asc_node": 252.511,
        "meta_arg_of_pericenter": 230.4954,
        "meta_mean_anomaly": 195.4493,
        "meta_ephemeris_type": 0,
        "meta_classification_type": "U",
        "meta_norad_cat_id": 39781,
        "meta_element_set_no": 999,
        "meta_rev_at_epoch": 8295,
        "meta_bstar": 0.0048537069,
        "meta_mean_motion_dot": 0.00012243,
        "meta_mean_motion_ddot": 0,
        "tle_line1": "1 39781U 97051AAN 25360.00672770  .00012243  00000+0  48537-2 0  9995",
        "tle_line2": "2 39781  86.3698 252.5110 0172366 230.4954 195.4493 14.20964815 82957"
      },
      "geometry": {
        "type": "Point",
        "coordinates": [
          -109.05794897810068,
          -12.27494785438865
        ]
      }
    },
    {
      "type": "Feature",
      "properties": {
        "norad_id": 40996,
        "name": "IRIDIUM 33 DEB",
        "group": "iridium-33-debris",
        "lat": -31.163899214708376,
        "lon": -7.886478065285831,
        "alt_km": 576.9891557821738,
        "timestamp": "2025-12-27T21:25:02.901859+00:00",
        "meta_object_name": "IRIDIUM 33 DEB",
        "meta_object_id": "1997-051ABJ",
        "meta_epoch": "2025-12-25T10:52:55.970112",
        "meta_mean_motion": 14.97048042,
        "meta_eccentricity": 0.0010436,
        "meta_inclination": 86.3519,
        "meta_ra_of_asc_node": 355.4655,
        "meta_arg_of_pericenter": 27.9702,
        "meta_mean_anomaly": 124.5027,
        "meta_ephemeris_type": 0,
        "meta_classification_type": "U",
        "meta_norad_cat_id": 40996,
        "meta_element_set_no": 999,
        "meta_rev_at_epoch": 62678,
        "meta_bstar": 0.0031302,
        "meta_mean_motion_dot": 0.00036257,
        "meta_mean_motion_ddot": 0,
        "tle_line1": "1 40996U 97051ABJ 25359.45342558  .00036257  00000+0  31302-2 0  9993",
        "tle_line2": "2 40996  86.3519 355.4655 0010436  27.9702 124.5027 14.97048042626785"
      },
      "geometry": {
        "type": "Point",
        "coordinates": [
          -7.886478065285831,
          -31.163899214708376
        ]
      }
    },
    {
      "type": "Feature",
      "properties": {
        "norad_id": 40998,
        "name": "IRIDIUM 33 DEB",
        "group": "iridium-33-debris",
        "lat": 46.25555048186868,
        "lon": -136.60954758873288,
        "alt_km": 737.6987649588464,
        "timestamp": "2025-12-27T21:25:02.901869+00:00",
        "meta_object_name": "IRIDIUM 33 DEB",
        "meta_object_id": "1997-051ABL",
        "meta_epoch": "2025-12-27T09:26:32.370144",
        "meta_mean_motion": 14.45143864,
        "meta_eccentricity": 0.0008516,
        "meta_inclination": 86.3811,
        "meta_ra_of_asc_node": 47.395,
        "meta_arg_of_pericenter": 44.2053,
        "meta_mean_anomaly": 15.0288,
        "meta_ephemeris_type": 0,
        "meta_classification_type": "U",
        "meta_norad_cat_id": 40998,
        "meta_element_set_no": 999,
        "meta_rev_at_epoch": 6893,
        "meta_bstar": 0.00048602,
        "meta_mean_motion_dot": 1.72e-05,
        "meta_mean_motion_ddot": 0,
        "tle_line1": "1 40998U 97051ABL 25361.39343021  .00001720  00000+0  48602-3 0  9996",
        "tle_line2": "2 40998  86.3811  47.3950 0008516  44.2053  15.0288 14.45143864 68935"
      },
      "geometry": {
        "type": "Point",
        "coordinates": [
          -136.60954758873288,
          46.25555048186868
        ]
      }
    },
    {
      "type": "Feature",
      "properties": {
        "norad_id": 46435,
        "name": "IRIDIUM 33 DEB",
        "group": "iridium-33-debris",
        "lat": 46.059023317941495,
        "lon": -168.70577863173145,
        "alt_km": 923.9102295961147,
        "timestamp": "2025-12-27T21:25:02.901880+00:00",
        "meta_object_name": "IRIDIUM 33 DEB",
        "meta_object_id": "1997-051ABN",
        "meta_epoch": "2025-12-27T06:57:44.436096",
        "meta_mean_motion": 14.33202711,
        "meta_eccentricity": 0.0205337,
        "meta_inclination": 86.2844,
        "meta_ra_of_asc_node": 187.6872,
        "meta_arg_of_pericenter": 228.8147,
        "meta_mean_anomaly": 311.7599,
        "meta_ephemeris_type": 0,
        "meta_classification_type": "U",
        "meta_norad_cat_id": 46435,
        "meta_element_set_no": 999,
        "meta_rev_at_epoch": 8124,
        "meta_bstar": 0.011625,
        "meta_mean_motion_dot": 0.00040605,
        "meta_mean_motion_ddot": 0,
        "tle_line1": "1 46435U 97051ABN 25361.29009764  .00040605  00000+0  11625-1 0  9998",
        "tle_line2": "2 46435  86.2844 187.6872 0205337 228.8147 311.7599 14.33202711 81241"
      },
      "geometry": {
        "type": "Point",
        "coordinates": [
          -168.70577863173145,
          46.059023317941495
        ]
      }
    },
    {
      "type": "Feature",
      "properties": {
        "norad_id": 46734,
        "name": "IRIDIUM 33 DEB",
        "group": "iridium-33-debris",
        "lat": 19.114113302142556,
        "lon": -2.4921834533000182,
        "alt_km": 754.6144329377439,
        "timestamp": "2025-12-27T21:25:02.901890+00:00",
        "meta_object_name": "IRIDIUM 33 DEB",
        "meta_object_id": "1997-051ABR",
        "meta_epoch": "2025-12-26T17:50:24.765216",
        "meta_mean_motion": 14.41977609,
        "meta_eccentricity": 0.00372857,
        "meta_inclination": 86.2643,
        "meta_ra_of_asc_node": 356.7146,
        "meta_arg_of_pericenter": 287.6839,
        "meta_mean_anomaly": 250.0617,
        "meta_ephemeris_type": 0,
        "meta_classification_type": "U",
        "meta_norad_cat_id": 46734,
        "meta_element_set_no": 999,
        "meta_rev_at_epoch": 63212,
        "meta_bstar": 0.0011195467,
        "meta_mean_motion_dot": 3.719e-05,
        "meta_mean_motion_ddot": 0,
        "tle_line1": "1 46734U 97051ABR 25360.74334219  .00003719  00000+0  11195-2 0  9993",
        "tle_line2": "2 46734  86.2643 356.7146 0037285 287.6839 250.0617 14.41977609632128"
      },
      "geometry": {
        "type": "Point",
        "coordinates": [
          -2.4921834533000182,
          19.114113302142556
        ]
      }
    }
  ]
}